{
  "type": "FeatureCollection",
  "features": [
    {
      "type": "Feature",
      "properties": {
        "norad_id": 46990,
        "name": "FENGYUN 1C DEB",
        "group": "fengyun-1c-debris",
        "lat": 61.59926175261621,
        "lon": 40.4281298431675,
        "alt_km": 844.7346649820975,
        "timestamp": "2025-12-27T16:33:30.513248+00:00",
        "meta_object_name": "FENGYUN 1C DEB",
        "meta_object_id": "1999-025EZQ",
        "meta_epoch": "2025-12-27T09:49:33.055104",
        "meta_mean_motion": 14.24098232,
        "meta_eccentricity": 0.03578,
        "meta_inclination": 98.2322,
        "meta_ra_of_asc_node": 204.6351,
        "meta_arg_of_pericenter": 17.2592,
        "meta_mean_anomaly": 98.5559,
        "meta_ephemeris_type": 0,
        "meta_classification_type": "U",
        "meta_norad_cat_id": 46990,
        "meta_element_set_no": 999,
        "meta_rev_at_epoch": 8738,
        "meta_bstar": 0.0025522,
        "meta_mean_motion_dot": 0.00011425,
        "meta_mean_motion_ddot": 0,
        "tle_line1": "1 46990U 99025EZQ 25361.40941036  .00011425  00000+0  25522-2 0  9997",
        "tle_line2": "2 46990  98.2322 204.6351 0357800  17.2592  98.5559 14.24098232 87388"
      },
      "geometry": {
        "type": "Point",
        "coordinates": [
          40.4281298431675,
          61.59926175261621
        ]
      }
    },
    {
      "type": "Feature",
      "properties": {
        "norad_id": 46992,
        "name": "FENGYUN 1C DEB",
        "group": "fengyun-1c-debris",
        "lat": 8.32842395410044,
        "lon": -13.257657482979221,
        "alt_km": 911.4341310995032,
        "timestamp": "2025-12-27T16:33:30.513258+00:00",
        "meta_object_name": "FENGYUN 1C DEB",
        "meta_object_id": "1999-025EZS",
        "meta_epoch": "2025-12-24T16:30:54.083808",
        "meta_mean_motion": 14.0071494,
        "meta_eccentricity": 0.00724273,
        "meta_inclination": 98.9011,
        "meta_ra_of_asc_node": 345.133,
        "meta_arg_of_pericenter": 127.6993,
        "meta_mean_anomaly": 233.0769,
        "meta_ephemeris_type": 0,
        "meta_classification_type": "U",
        "meta_norad_cat_id": 46992,
        "meta_element_set_no": 999,
        "meta_rev_at_epoch": 61124,
        "meta_bstar": 0.00045239816,
        "meta_mean_motion_dot": 6.47e-06,
        "meta_mean_motion_ddot": 0,
        "tle_line1": "1 46992U 99025EZS 25358.68812597  .00000647  00000+0  45240-3 0  9998",
        "tle_line2": "2 46992  98.9011 345.1330 0072427 127.6993 233.0769 14.00714940611242"
      },
      "geometry": {
        "type": "Point",
        "coordinates": [
          -13.257657482979221,
          8.32842395410044
        ]
      }
    },
    {
      "type": "Feature",
      "properties": {
        "norad_id": 46993,
        "name": "FENGYUN 1C DEB",
        "group": "fengyun-1c-debris",
        "lat": -40.13203085345149,
        "lon": 126.1836640310302,
        "alt_km": 907.2908241473206,
        "timestamp": "2025-12-27T16:33:30.513268+00:00",
        "meta_object_name": "FENGYUN 1C DEB",
        "meta_object_id": "1999-025EZT",
        "meta_epoch": "2025-12-18T13:48:38.255328",
        "meta_mean_motion": 13.69154142,
        "meta_eccentricity": 0.02625123,
        "meta_inclination": 98.7233,
        "meta_ra_of_asc_node": 110.4847,
        "meta_arg_of_pericenter": 283.8917,
        "meta_mean_anomaly": 132.0062,
        "meta_ephemeris_type": 0,
        "meta_classification_type": "U",
        "meta_norad_cat_id": 46993,
        "meta_element_set_no": 999,
        "meta_rev_at_epoch": 60337,
        "meta_bstar": 0.00040493614,
        "meta_mean_motion_dot": 4.06e-06,
        "meta_mean_motion_ddot": 0,
        "tle_line1": "1 46993U 99025EZT 25352.57544277  .00000406  00000+0  40494-3 0  9997",
        "tle_line2": "2 46993  98.7233 110.4847 0262512 283.8917 132.0062 13.69154142603375"
      },
      "geometry": {
        "type": "Point",
        "coordinates": [
          126.1836640310302,
          -40.13203085345149
        ]
      }
    },
    {
      "type": "Feature",
      "properties": {
        "norad_id": 46995,
        "name": "FENGYUN 1C DEB",
        "group": "fengyun-1c-debris",
        "lat": 22.83183215824319,
        "lon": -93.86113834926981,
        "alt_km": 912.9759063807951,
        "timestamp": "2025-12-27T16:33:30.513277+00:00",
        "meta_object_name": "FENGYUN 1C DEB",
        "meta_object_id": "1999-025EZV",
        "meta_epoch": "2025-12-25T04:56:12.332256",
        "meta_mean_motion": 13.8642484,
        "meta_eccentricity": 0.0187605,
        "meta_inclination": 98.5954,
        "meta_ra_of_asc_node": 80.2045,
        "meta_arg_of_pericenter": 84.1522,
        "meta_mean_anomaly": 278.0988,
        "meta_ephemeris_type": 0,
        "meta_classification_type": "U",
        "meta_norad_cat_id": 46995,
        "meta_element_set_no": 999,
        "meta_rev_at_epoch": 60641,
        "meta_bstar": 0.002459,
        "meta_mean_motion_dot": 3.236e-05,
        "meta_mean_motion_ddot": 0,
        "tle_line1": "1 46995U 99025EZV 25359.20569829  .00003236  00000+0  24590-2 0  9998",
        "tle_line2": "2 46995  98.5954  80.2045 0187605  84.1522 278.0988 13.86424840606412"
      },
      "geometry": {
        "type": "Point",
        "coordinates": [
          -93.86113834926981,
          22.83183215824319
        ]
      }
    },
    {
      "type": "Feature",
      "properties": {
        "norad_id": 46997,
        "name": "FENGYUN 1C DEB",
        "group": "fengyun-1c-debris",
        "lat": -14.967510877068005,
        "lon": -140.5765445619245,
        "alt_km": 804.555977483973,
        "timestamp": "2025-12-27T16:33:30.513287+00:00",
        "meta_object_name": "FENGYUN 1C DEB",
        "meta_object_id": "1999-025EZX",
        "meta_epoch": "2025-12-24T21:13:44.521248",
        "meta_mean_motion": 14.28060858,
        "meta_eccentricity": 0.0024736,
        "meta_inclination": 98.5571,
        "meta_ra_of_asc_node": 38.9817,
        "meta_arg_of_pericenter": 298.9798,
        "meta_mean_anomaly": 241.8889,
        "meta_ephemeris_type": 0,
        "meta_classification_type": "U",
        "meta_norad_cat_id": 46997,
        "meta_element_set_no": 999,
        "meta_rev_at_epoch": 62624,
        "meta_bstar": 0.0011356,
        "meta_mean_motion_dot": 2.787e-05,
        "meta_mean_motion_ddot": 0,
        "tle_line1": "1 46997U 99025EZX 25358.88454307  .00002787  00000+0  11356-2 0  9993",
        "tle_line2": "2 46997  98.5571  38.9817 0024736 298.9798 241.8889 14.28060858626244"
      },
      "geometry": {
        "type": "Point",
        "coordinates": [
          -140.5765445619245,
          -14.967510877068005
        ]
      }
    },
    {
      "type": "Feature",
      "properties": {
        "norad_id": 47001,
        "name": "FENGYUN 1C DEB",
        "group": "fengyun-1c-debris",
        "lat": 62.549594300516475,
        "lon": 42.57289513265491,
        "alt_km": 737.741963959339,
        "timestamp": "2025-12-27T16:33:30.513297+00:00",
        "meta_object_name": "FENGYUN 1C DEB",
        "meta_object_id": "1999-025FAB",
        "meta_epoch": "2025-12-21T21:42:56.731392",
        "meta_mean_motion": 14.38539606,
        "meta_eccentricity": 0.00511443,
        "meta_inclination": 99.3039,
        "meta_ra_of_asc_node": 54.7035,
        "meta_arg_of_pericenter": 22.5834,
        "meta_mean_anomaly": 337.7586,
        "meta_ephemeris_type": 0,
        "meta_classification_type": "U",
        "meta_norad_cat_id": 47001,
        "meta_element_set_no": 999,
        "meta_rev_at_epoch": 74046,
        "meta_bstar": 0.0013955962,
        "meta_mean_motion_dot": 4.285e-05,
        "meta_mean_motion_ddot": 0,
        "tle_line1": "1 47001U 99025FAB 25355.90482328  .00004285  00000+0  13956-2 0  9997",
        "tle_line2": "2 47001  99.3039  54.7035 0051144  22.5834 337.7586 14.38539606740465"
      },
      "geometry": {
        "type": "Point",
        "coordinates": [
          42.57289513265491,
          62.549594300516475
        ]
      }
    },
    {
      "type": "Feature",
      "properties": {
        "norad_id": 47005,
        "name": "FENGYUN 1C DEB",
        "group": "fengyun-1c-debris",
        "lat": 70.69273743666604,
        "lon": -59.47640395251663,
        "alt_km": 852.9115546195917,
        "timestamp": "2025-12-27T16:33:30.513307+00:00",
        "meta_object_name": "FENGYUN 1C DEB",
        "meta_object_id": "1999-025FAF",
        "meta_epoch": "2025-12-26T12:53:58.066368",
        "meta_mean_motion": 14.11173446,
        "meta_eccentricity": 0.006586,
        "meta_inclination": 99.5991,
        "meta_ra_of_asc_node": 90.4083,
        "meta_arg_of_pericenter": 205.757,
        "meta_mean_anomaly": 170.1998,
        "meta_ephemeris_type": 0,
        "meta_classification_type": "U",
        "meta_norad_cat_id": 47005,
        "meta_element_set_no": 999,
        "meta_rev_at_epoch": 82962,
        "meta_bstar": 0.0027621,
        "meta_mean_motion_dot": 5.034e-05,
        "meta_mean_motion_ddot": 0,
        "tle_line1": "1 47005U 99025FAF 25360.53747762  .00005034  00000+0  27621-2 0  9999",
        "tle_line2": "2 47005  99.5991  90.4083 0065860 205.7570 170.1998 14.11173446829629"
      },
      "geometry": {
        "type": "Point",
        "coordinates": [
          -59.47640395251663,
          70.69273743666604
        ]
      }
    }
  ]
}